{
  "type": "FeatureCollection",
  "features": [
    {
      "type": "Feature",
      "properties": {
        "norad_id": 66851,
        "name": "STARLINK-36094",
        "group": "last-30-days",
        "lat": -29.12297933869695,
        "lon": -33.0517782317767,
        "alt_km": 309.9876377964674,
        "timestamp": "2025-12-14T16:47:39.438706+00:00",
        "meta_object_name": "STARLINK-36094",
        "meta_object_id": "2025-281D",
        "meta_epoch": "2025-12-13T08:10:21.686592",
        "meta_mean_motion": 15.8981292,
        "meta_eccentricity": 0.00032289,
        "meta_inclination": 43.0005,
        "meta_ra_of_asc_node": 118.6519,
        "meta_arg_of_pericenter": 315.9099,
        "meta_mean_anomaly": 44.1517,
        "meta_ephemeris_type": 0,
        "meta_classification_type": "U",
        "meta_norad_cat_id": 66851,
        "meta_element_set_no": 999,
        "meta_rev_at_epoch": 289,
        "meta_bstar": -0.0017495021,
        "meta_mean_motion_dot": -0.00510231,
        "meta_mean_motion_ddot": 0,
        "tle_line1": "1 66851U 25281D   25347.34052878 -.00510231  00000+0 -17495-2 0  9993",
        "tle_line2": "2 66851  43.0005 118.6519 0003228 315.9099  44.1517 15.89812920  2898"
      },
      "geometry": {
        "type": "Point",
        "coordinates": [
          -33.0517782317767,
          -29.12297933869695
        ]
      }
    },
    {
      "type": "Feature",
      "properties": {
        "norad_id": 66852,
        "name": "STARLINK-35992",
        "group": "last-30-days",
        "lat": -30.810035860964998,
        "lon": -29.98524278379733,
        "alt_km": 310.68852688978313,
        "timestamp": "2025-12-14T16:47:39.438716+00:00",
        "meta_object_name": "STARLINK-35992",
        "meta_object_id": "2025-281E",
        "meta_epoch": "2025-12-13T17:11:58.334496",
        "meta_mean_motion": 15.89029664,
        "meta_eccentricity": 0.00036513,
        "meta_inclination": 42.9998,
        "meta_ra_of_asc_node": 116.3082,
        "meta_arg_of_pericenter": 297.4358,
        "meta_mean_anomaly": 62.6145,
        "meta_ephemeris_type": 0,
        "meta_classification_type": "U",
        "meta_norad_cat_id": 66852,
        "meta_element_set_no": 999,
        "meta_rev_at_epoch": 295,
        "meta_bstar": -0.0022152341,
        "meta_mean_motion_dot": -0.00613781,
        "meta_mean_motion_ddot": 0,
        "tle_line1": "1 66852U 25281E   25347.71664739 -.00613781  00000+0 -22152-2 0  9990",
        "tle_line2": "2 66852  42.9998 116.3082 0003651 297.4358  62.6145 15.89029664  2954"
      },
      "geometry": {
        "type": "Point",
        "coordinates": [
          -29.98524278379733,
          -30.810035860964998
        ]
      }
    },
    {
      "type": "Feature",
      "properties": {
        "norad_id": 66853,
        "name": "STARLINK-35986",
        "group": "last-30-days",
        "lat": -34.454662877949055,
        "lon": -22.379686547614245,
        "alt_km": 303.740734263356,
        "timestamp": "2025-12-14T16:47:39.438726+00:00",
        "meta_object_name": "STARLINK-35986",
        "meta_object_id": "2025-281F",
        "meta_epoch": "2025-12-13T06:38:28.442112",
        "meta_mean_motion": 15.90153253,
        "meta_eccentricity": 0.00023091,
        "meta_inclination": 43.0005,
        "meta_ra_of_asc_node": 119.0322,
        "meta_arg_of_pericenter": 242.4337,
        "meta_mean_anomaly": 117.6303,
        "meta_ephemeris_type": 0,
        "meta_classification_type": "U",
        "meta_norad_cat_id": 66853,
        "meta_element_set_no": 999,
        "meta_rev_at_epoch": 288,
        "meta_bstar": -0.00017869687,
        "meta_mean_motion_dot": -0.00056272,
        "meta_mean_motion_ddot": 0,
        "tle_line1": "1 66853U 25281F   25347.27671808 -.00056272  00000+0 -17870-3 0  9995",
        "tle_line2": "2 66853  43.0005 119.0322 0002309 242.4337 117.6303 15.90153253  2882"
      },
      "geometry": {
        "type": "Point",
        "coordinates": [
          -22.379686547614245,
          -34.454662877949055
        ]
      }
    },
    {
      "type": "Feature",
      "properties": {
        "norad_id": 66854,
        "name": "STARLINK-36087",
        "group": "last-30-days",
        "lat": -40.49780624365958,
        "lon": -3.4178925604340273,
        "alt_km": 288.602660309929,
        "timestamp": "2025-12-14T16:47:39.438736+00:00",
        "meta_object_name": "STARLINK-36087",
        "meta_object_id": "2025-281G",
        "meta_epoch": "2025-12-13T12:39:01.288800",
        "meta_mean_motion": 15.91597639,
        "meta_eccentricity": 0.00118184,
        "meta_inclination": 43.0001,
        "meta_ra_of_asc_node": 117.4673,
        "meta_arg_of_pericenter": 281.6717,
        "meta_mean_anomaly": 78.2831,
        "meta_ephemeris_type": 0,
        "meta_classification_type": "U",
        "meta_norad_cat_id": 66854,
        "meta_element_set_no": 999,
        "meta_rev_at_epoch": 292,
        "meta_bstar": 0.0028310803,
        "meta_mean_motion_dot": 0.00954127,
        "meta_mean_motion_ddot": 0.00039149778,
        "tle_line1": "1 66854U 25281G   25347.52709825  .00954127  39150-3  28311-2 0  9992",
        "tle_line2": "2 66854  43.0001 117.4673 0011818 281.6717  78.2831 15.91597639  2926"
      },
      "geometry": {
        "type": "Point",
        "coordinates": [
          -3.4178925604340273,
          -40.49780624365958
        ]
      }
    },
    {
      "type": "Feature",
      "properties": {
        "norad_id": 66855,
        "name": "STARLINK-36090",
        "group": "last-30-days",
        "lat": -24.586673109262044,
        "lon": -40.340735592811775,
        "alt_km": 317.2914695086656,
        "timestamp": "2025-12-14T16:47:39.438746+00:00",
        "meta_object_name": "STARLINK-36090",
        "meta_object_id": "2025-281H",
        "meta_epoch": "2025-12-13T08:08:04.879968",
        "meta_mean_motion": 15.87671578,
        "meta_eccentricity": 0.00108829,
        "meta_inclination": 43.0006,
        "meta_ra_of_asc_node": 118.6375,
        "meta_arg_of_pericenter": 159.1339,
        "meta_mean_anomaly": 200.9981,
        "meta_ephemeris_type": 0,
        "meta_classification_type": "U",
        "meta_norad_cat_id": 66855,
        "meta_element_set_no": 999,
        "meta_rev_at_epoch": 289,
        "meta_bstar": -0.00590076,
        "meta_mean_motion_dot": -0.01435026,
        "meta_mean_motion_ddot": 0,
        "tle_line1": "1 66855U 25281H   25347.33894537 -.01435026  00000+0 -59008-2 0  9997",
        "tle_line2": "2 66855  43.0006 118.6375 0010882 159.1339 200.9981 15.87671578  2899"
      },
      "geometry": {
        "type": "Point",
        "coordinates": [
          -40.340735592811775,
          -24.586673109262044
        ]
      }
    },
    {
      "type": "Feature",
      "properties": {
        "norad_id": 66856,
        "name": "STARLINK-36072",
        "group": "last-30-days",
        "lat": -35.636844852458275,
        "lon": -19.508650672299403,
        "alt_km": 308.8838431714921,
        "timestamp": "2025-12-14T16:47:39.438759+00:00",
        "meta_object_name": "STARLINK-36072",
        "meta_object_id": "2025-281J",
        "meta_epoch": "2025-12-13T17:09:47.979360",
        "meta_mean_motion": 15.89078858,
        "meta_eccentricity": 0.00021837,
        "meta_inclination": 43.0008,
        "meta_ra_of_asc_node": 116.2949,
        "meta_arg_of_pericenter": 294.8736,
        "meta_mean_anomaly": 65.1911,
        "meta_ephemeris_type": 0,
        "meta_classification_type": "U",
        "meta_norad_cat_id": 66856,
        "meta_element_set_no": 999,
        "meta_rev_at_epoch": 295,
        "meta_bstar": -0.0010338399,
        "meta_mean_motion_dot": -0.0029745,
        "meta_mean_motion_ddot": 0,
        "tle_line1": "1 66856U 25281J   25347.71513865 -.00297450  00000+0 -10338-2 0  9991",
        "tle_line2": "2 66856  43.0008 116.2949 0002183 294.8736  65.1911 15.89078858  2951"
      },
      "geometry": {
        "type": "Point",
        "coordinates": [
          -19.508650672299403,
          -35.636844852458275
        ]
      }
    },
    {
      "type": "Feature",
      "properties": {
        "norad_id": 66857,
        "name": "STARLINK-36083",
        "group": "last-30-days",
        "lat": -36.49555266619239,
        "lon": -17.250273504587565,
        "alt_km": 309.31117279256523,
        "timestamp": "2025-12-14T16:47:39.438769+00:00",
        "meta_object_name": "STARLINK-36083",
        "meta_object_id": "2025-281K",
        "meta_epoch": "2025-12-13T18:39:42.493824",
        "meta_mean_motion": 15.8893883,
        "meta_eccentricity": 0.00015275,
        "meta_inclination": 43.0002,
        "meta_ra_of_asc_node": 115.902,
        "meta_arg_of_pericenter": 288.1243,
        "meta_mean_anomaly": 71.9465,
        "meta_ephemeris_type": 0,
        "meta_classification_type": "U",
        "meta_norad_cat_id": 66857,
        "meta_element_set_no": 999,
        "meta_rev_at_epoch": 296,
        "meta_bstar": -0.0010781444,
        "meta_mean_motion_dot": -0.00307582,
        "meta_mean_motion_ddot": 0,
        "tle_line1": "1 66857U 25281K   25347.77757516 -.00307582  00000+0 -10781-2 0  9991",
        "tle_line2": "2 66857  43.0002 115.9020 0001527 288.1243  71.9465 15.88938830  2966"
      },
      "geometry": {
        "type": "Point",
        "coordinates": [
          -17.250273504587565,
          -36.49555266619239
        ]
      }
    }
  ]
}